NORAD_CAT_ID,OBJECT_NAME,OBJECT_TYPE,EPOCH,MEAN_MOTION,ECCENTRICITY,INCLINATION,RA_OF_ASC_NODE,ARG_OF_PERICENTER,MEAN_ANOMALY,BSTAR,MEAN_MOTION_DOT,MEAN_MOTION_DDOT,TLE_LINE0,TLE_LINE1,TLE_LINE2,SEMIMAJOR_AXIS,PERIOD,APOGEE,PERIGEE,DECAYED
49758.0,STARLINK-3194,PAYLOAD,2022-01-12 14:00:01,15.40439207,0.0002737,53.2168,125.8327,23.6288,58.2372,0.00019315,7.541e-05,0.0,0 STARLINK-3194,1 49758U 21115AL  22012.58334491  .00007541  00000-0  19315-3 0  9996,2 49758  53.2168 125.8327 0002737  23.6288  58.2372 15.40439207  3652,6822.949000000001,93.48,446.682,442.947,0.0
49758.0,STARLINK-3194,PAYLOAD,2022-01-12 22:00:00,15.40474044,0.0002758,53.2166,124.2618,21.7817,109.6413,-0.0012369,-0.00050959,0.0,0 STARLINK-3194,1 49758U 21115AL  22012.91667824 -.00050959  00000-0 -12369-2 0  9996,2 49758  53.2166 124.2618 0002758  21.7817 109.6413 15.40474044  7576,6822.846,93.478,446.593,442.83,0.0
49758.0,STARLINK-3194,PAYLOAD,2022-01-13 14:00:01,15.40449735,0.0002832,53.2167,121.1215,21.3343,209.2689,0.00017592,6.834e-05,0.0,0 STARLINK-3194,1 49758U 21115AL  22013.58334491  .00006834  00000-0  17592-3 0  9996,2 49758  53.2167 121.1215 0002832  21.3343 209.2689 15.40449735  7671,6822.918000000002,93.479,446.715,442.851,0.0
49758.0,STARLINK-3194,PAYLOAD,2022-01-13 22:00:00,15.40489692,0.0002781,53.2162,119.5505,20.0979,260.077,-0.00077914,-0.00032343,0.0,0 STARLINK-3194,1 49758U 21115AL  22013.91667824 -.00032343  00000-0 -77914-3 0  9992,2 49758  53.2162 119.5505 0002781  20.0979 260.0770 15.40489692  3615,6822.8,93.477,446.562,442.768,0.0
49758.0,STARLINK-3194,PAYLOAD,2022-01-14 14:00:01,15.40465211,0.0002883,53.2164,116.4103,21.9119,357.4683,-0.00057883,-0.00024138,0.0,0 STARLINK-3194,1 49758U 21115AL  22014.58334491 -.00024138  00000-0 -57883-3 0  9993,2 49758  53.2164 116.4103 0002883  21.9119 357.4683 15.40465211  3644,6822.871999999999,93.478,446.704,442.77,0.0
49758.0,STARLINK-3194,PAYLOAD,2022-01-14 22:00:00,15.40473274,0.0002806,53.2161,114.8392,19.8122,49.1471,-0.00084516,-0.00035019,0.0,0 STARLINK-3194,1 49758U 21115AL  22014.91667824 -.00035019  00000-0 -84516-3 0  9992,2 49758  53.2161 114.8392 0002806  19.8122  49.1471 15.40473274  7886,6822.849,93.478,446.628,442.799,0.0
49758.0,STARLINK-3194,PAYLOAD,2022-01-15 14:00:01,15.40499023,0.0002885,53.2165,111.6989,17.0965,151.1859,0.0011899,0.00048907,0.0,0 STARLINK-3194,1 49758U 21115AL  22015.58335648  .00048907  00000-0  11899-2 0  9993,2 49758  53.2165 111.6989 0002885  17.0965 151.1859 15.40499023  7984,6822.772,93.476,446.606,442.669,0.0
49758.0,STARLINK-3194,PAYLOAD,2022-01-15 22:00:01,15.405598,0.0002784,53.2166,110.1274,14.8412,203.0961,-0.00061435,-0.00025669,0.0,0 STARLINK-3194,1 49758U 21115AL  22015.91668981 -.00025669  00000-0 -61435-3 0  9993,2 49758  53.2166 110.1274 0002784  14.8412 203.0961 15.40559800  3646,6822.593000000003,93.473,446.357,442.559,0.0
49758.0,STARLINK-3194,PAYLOAD,2022-01-16 06:00:00,15.40569123,0.000264,53.2169,108.5558,15.3892,252.1634,-0.0015709,-0.00064697,0.0,0 STARLINK-3194,1 49758U 21115AL  22016.25001157 -.00064697  00000-0 -15709-2 0  9993,2 49758  53.2169 108.5558 0002640  15.3892 252.1634 15.40569123  8088,6822.566,93.472,446.232,442.629,0.0
49758.0,STARLINK-3194,PAYLOAD,2022-01-16 14:00:01,15.40521578,0.000292,53.2171,106.9872,13.2502,304.0101,-0.0046122,-0.0018594,0.0,0 STARLINK-3194,1 49758U 21115AL  22016.58334491 -.00185940  00000-0 -46122-2 0  9997,2 49758  53.2171 106.9872 0002920  13.2502 304.0101 15.40521578  3654,6822.706,93.475,446.56300000000016,442.579,0.0
49758.0,STARLINK-3194,PAYLOAD,2022-01-16 22:00:00,15.40367299,0.0002829,53.2172,105.4157,11.834,354.9949,-0.00010518,-4.714e-05,0.0,0 STARLINK-3194,1 49758U 21115AL  22016.91667824 -.00004714  00000-0 -10518-3 0  9993,2 49758  53.2172 105.4157 0002829  11.8340 354.9949 15.40367299  3648,6823.161,93.484,446.957,443.096,0.0
49758.0,STARLINK-3194,PAYLOAD,2022-01-17 00:00:00,15.40340099,0.0002767,53.2174,105.0228,12.4343,96.7711,0.0014863,0.00060965,0.0,0 STARLINK-3194,1 49758U 21115AL  22017.00001157  .00060965  00000-0  14863-2 0  9999,2 49758  53.2174 105.0228 0002767  12.4343  96.7711 15.40340099  8200,6823.2419999999975,93.486,446.995,443.219,0.0
49758.0,STARLINK-3194,PAYLOAD,2022-01-17 14:00:01,15.40373984,0.0003012,53.2177,102.2763,15.8408,89.9765,0.00064066,0.00025958,0.0,0 STARLINK-3194,1 49758U 21115AL  22017.58334491  .00025958  00000-0  64066-3 0  9996,2 49758  53.2177 102.2763 0003012  15.8408  89.9765 15.40373984  8290,6823.142,93.484,447.062,442.952,0.0
49758.0,STARLINK-3194,PAYLOAD,2022-01-17 22:00:00,15.40402346,0.0002924,53.2176,100.7048,14.6283,140.6672,0.00011249,4.216e-05,0.0,0 STARLINK-3194,1 49758U 21115AL  22017.91667824  .00004216  00000-0  11249-3 0  9991,2 49758  53.2176 100.7048 0002924  14.6283 140.6672 15.40402346  3637,6823.058000000001,93.482,446.918,442.92800000000005,0.0
49758.0,STARLINK-3194,PAYLOAD,2022-01-18 06:00:00,15.40475967,0.0002859,53.2178,99.1339,20.2791,184.5913,8.4754e-05,3.084e-05,0.0,0 STARLINK-3194,1 49758U 21115AL  22018.25001157  .00003084  00000-0  84754-4 0  9994,2 49758  53.2178  99.1339 0002859  20.2791 184.5913 15.40475967  8399,6822.840999999999,93.478,446.656,442.755,0.0
49758.0,STARLINK-3194,PAYLOAD,2022-01-18 14:00:01,15.40466345,0.0003156,53.2177,97.5652,16.7988,237.6826,-8.5293e-05,-3.911e-05,0.0,0 STARLINK-3194,1 49758U 21115AL  22018.58334491 -.00003911  00000-0 -85293-4 0  9990,2 49758  53.2177  97.5652 0003156  16.7988 237.6826 15.40466345  3632,6822.869000000002,93.478,446.887,442.581,0.0
49758.0,STARLINK-3194,PAYLOAD,2022-01-18 22:00:00,15.40481053,0.0003003999999999,53.2173,95.9933,14.4508,289.6375,-0.00089825,-0.00037193,0.0,0 STARLINK-3194,1 49758U 21115AL  22018.91667824 -.00037193  00000-0 -89825-3 0  9999,2 49758  53.2173  95.9933 0003004  14.4508 289.6375 15.40481053  3636,6822.826,93.477,446.74,442.641,0.0
49758.0,STARLINK-3194,PAYLOAD,2022-01-19 06:00:02,15.40463209,0.0002871,53.2173,94.4224,14.3046,339.4184,-0.00027348,-0.00011635,0.0,0 STARLINK-3194,1 49758U 21115AL  22019.25002315 -.00011635  00000-0 -27348-3 0  9990,2 49758  53.2173  94.4224 0002871  14.3046 339.4184 15.40463209  8551,6822.878000000002,93.478,446.702,442.784,0.0
49758.0,STARLINK-3194,PAYLOAD,2022-01-19 14:00:01,15.40458415,0.0003121,53.2169,92.8538,12.8955,30.3658,-0.00032744,-0.00013846,0.0,0 STARLINK-3194,1 49758U 21115AL  22019.58334491 -.00013846  00000-0 -32744-3 0  9991,2 49758  53.2169  92.8538 0003121  12.8955  30.3658 15.40458415  3615,6822.892,93.479,446.887,442.628,0.0
49758.0,STARLINK-3194,PAYLOAD,2022-01-19 22:00:00,15.40434353,0.000296,53.2165,91.2818,11.1674,81.679,0.00079483,0.00032394,0.0,0 STARLINK-3194,1 49758U 21115AL  22019.91667824  .00032394  00000-0  79483-3 0  9995,2 49758  53.2165  91.2818 0002960  11.1674  81.6790 15.40434353  3649,6822.9630000000025,93.48,446.848,442.809,0.0
49758.0,STARLINK-3194,PAYLOAD,2022-01-20 14:00:01,15.40458844,0.0003131,53.2162,88.1423,12.3134,179.6408,-0.0013482,-0.00055451,0.0,0 STARLINK-3194,1 49758U 21115AL  22020.58334491 -.00055451  00000-0 -13482-2 0  9998,2 49758  53.2162  88.1423 0003131  12.3134 179.6408 15.40458844  8750,6822.891,93.479,446.892,442.62,0.0
49758.0,STARLINK-3194,PAYLOAD,2022-01-20 22:00:00,15.40399157,0.0003009,53.2161,86.5701,14.5074,227.0174,-0.00050488,-0.00021069,0.0,0 STARLINK-3194,1 49758U 21115AL  22020.91667824 -.00021069  00000-0 -50488-3 0  9990,2 49758  53.2161  86.5701 0003009  14.5074 227.0174 15.40399157  3621,6823.066999999999,93.482,446.985,442.879,0.0
49758.0,STARLINK-3194,PAYLOAD,2022-01-21 14:00:01,15.40401929,0.0003205,53.2161,83.4308,16.3594,324.1877,0.0016752,0.00068981,0.0,0 STARLINK-3194,1 49758U 21115AL  22021.58334491  .00068981  00000-0  16752-2 0  9992,2 49758  53.2161  83.4308 0003205  16.3594 324.1877 15.40401929  8912,6823.059,93.482,447.111,442.737,0.0
49758.0,STARLINK-3194,PAYLOAD,2022-01-21 22:00:00,15.40441925,0.0003029,53.2163,81.8585,17.3916,12.7066,0.00067841,0.0002758,0.0,0 STARLINK-3194,1 49758U 21115AL  22021.91667824  .00027580  00000-0  67841-3 0  9994,2 49758  53.2163  81.8585 0003029  17.3916  12.7066 15.40441925  3641,6822.941,93.48,446.87300000000016,442.739,0.0
49758.0,STARLINK-3194,PAYLOAD,2022-01-22 06:00:00,15.40500539,0.0003055,53.2165,80.2878,18.9996,60.6792,-0.00049348,-0.00020672,0.0,0 STARLINK-3194,1 49758U 21115AL  22022.25001157 -.00020672  00000-0 -49348-3 0  9992,2 49758  53.2165  80.2878 0003055  18.9996  60.6792 15.40500539  9017,6822.768,93.476,446.717,442.549,0.0
49758.0,STARLINK-3194,PAYLOAD,2022-01-22 14:00:01,15.404554999999998,0.0003283,53.2166,78.7188,16.8888,112.4381,0.0020799,0.00086089,0.0,0 STARLINK-3194,1 49758U 21115AL  22022.58334491  .00086089  00000-0  20799-2 0  9998,2 49758  53.2166  78.7188 0003283  16.8888 112.4381 15.40455500  3633,6822.901,93.479,447.006,442.526,0.0
49758.0,STARLINK-3194,PAYLOAD,2022-01-22 22:00:00,15.40515985,0.0003092,53.2168,77.1462,16.4932,162.4647,-8.5484e-05,-3.925e-05,0.0,0 STARLINK-3194,1 49758U 21115AL  22022.91667824 -.00003925  00000-0 -85484-4 0  9998,2 49758  53.2168  77.1462 0003092  16.4932 162.4647 15.40515985  9110,6822.722,93.475,446.697,442.478,0.0
49758.0,STARLINK-3194,PAYLOAD,2022-01-23 14:00:01,15.40462765,0.0003278,53.2172,74.0065,10.88,267.3666,-0.00012105,-5.379999999999999e-05,0.0,0 STARLINK-3194,1 49758U 21115AL  22023.58334491 -.00005380  00000-0 -12105-3 0  9999,2 49758  53.2172  74.0065 0003278  10.8800 267.3666 15.40462765  9223,6822.88,93.478,446.981,442.508,0.0
49758.0,STARLINK-3194,PAYLOAD,2022-01-23 22:00:00,15.40424858,0.0003084,53.2172,72.434,9.5681,318.2788,0.00094076,0.00038435,0.0,0 STARLINK-3194,1 49758U 21115AL  22023.91667824  .00038435  00000-0  94076-3 0  9997,2 49758  53.2172  72.4340 0003084   9.5681 318.2788 15.40424858  3639,6822.991,93.481,446.961,442.752,0.0
